#dP2023  5  2  0  0  0.00000000      96 __u+U ITR00 FIT  IAC
## 2260 172800.00000000   900.00000000 60066 0.0000000000000
+  119   C06C07C08C09C10C11C12C13C14C16C19C20C21C22C23C24C25
+        C26C27C28C29C30C32C33C34C35C36C37C38C39C40C41C42C43
+        C44C45C46E02E03E04E05E07E08E09E10E11E12E13E14E15E18
+        E19E21E24E25E26E27E30E31E33E34E36G01G02G03G04G05G06
+        G07G08G09G10G11G12G13G14G15G16G17G18G19G20G21G22G23
+        G24G25G26G27G28G29G30G31G32J02J03J04R01R02R03R04R05
+        R07R08R09R11R12R13R14R15R16R17R18R19R20R21R22R24R25
++         9  8  9  9  6  8  6  8  8  9  7  7  6  6  7  8  6
++         6  6  7  7  6  6  6  6  7  7  6  9  9  7  5  6  6
++         6  7  4  5  6  4  4  5  6  6  6  6  7  6  5  6  8
++         6  7  5  5  8  6  6  6  8  7  6  6  6  6  6  6  5
++         5  6  6  6  6  6  5  4  5  6  6  6  5  5  6  6  6
++         5  5  6  6  5  5  5  5  5  7  6  9  7  6  7  7  6
++         6  7  5  5  6  6  6  8  4  6  8  7  6  5  5  5  7
%c M  cc GPS ccc cccc cccc cccc cccc ccccc ccccc ccccc ccccc
%c cc cc ccc ccc cccc cccc cccc cccc ccccc ccccc ccccc ccccc
%f  0.0000000  0.000000000  0.00000000000  0.000000000000000
%f  0.0000000  0.000000000  0.00000000000  0.000000000000000
%i    0    0    0    0      0      0      0      0         0
%i    0    0    0    0      0      0      0      0         0
/* INFORMATION & ANALYSIS CENTER (IAC)      ULTRA-RAPID DATA
/* S/V CLOCKS ARE ALIGNED TO GNSS TIME                      
/* G:C1WC2W R:C1PC2P E:C1XC5X C:C2IC6I J:C1CC2S             
/* PCV:IGS20_2247 OL/AL:FES2004  NONE     YN ORB:CoN CLK:CoN
*  2023 05 02 18 30  0.00000000
PC06  -2501.110916  26940.097008  32441.604652   -194.752098
PC07 -18523.512548  32025.840051 -20348.958890     40.443590
PC08  -7283.760211  40472.693210  -8894.620982    493.908901
PC09   6840.253023  31052.205263  28386.272069    699.587117
PC10 -10620.633672  32062.564215 -25243.292720    -48.112396
PC11   9869.422077 -12228.117173  23119.736587    597.763469
PC12  24118.465596    758.350563  14044.320001    611.565059
PC13  -2339.770426  41918.250956  -1810.131823    265.912725
PC14  17058.492134 -20253.721188  -8682.168151    203.937879
PC16  -5759.059374  24829.301251  33871.554039     91.199524
PC19  -8849.645945  20710.701207  16526.106820   -906.153161
PC20 -21813.030088  17395.499425   1241.810528    591.874808
PC21  22585.535380  -3177.990040  16079.089276   -912.314133
PC22   9843.157831  12277.846809  23049.534010   -507.254466
PC23 -10245.497487 -23840.205416  10272.706144   -918.767740
PC24  13141.519836 -13869.025930 -20358.950021   -100.930363
PC25    716.418220 -27186.756669  -6309.493921    118.541365
PC26  16577.733017   5311.481694 -21818.916870   -114.670309
PC27 -26292.207704  -6727.470664  -6489.029286    134.350480
PC28 -20173.169574 -16517.463563   9947.332387     99.210435
PC29   1330.475874  17085.894845 -22034.851518    115.066788
PC30 -18431.074193   7401.266335 -19604.960912      0.030768
PC32 -22561.735115   3353.586504 -16069.848321   -568.662918
PC33   8787.641389 -20763.415308 -16419.113769   -877.618325
PC34  17409.534733  -8268.175304  20173.794898    161.971465
PC35  20188.904128  16107.860059 -10637.374262    635.100021
PC36  -1864.115186  26951.735687   7003.478996   -465.309002
PC37 -16371.594007  -7136.484909  21459.424766   -785.583033
PC38 -11666.425769  37009.271079 -16302.432207     75.718124
PC39 -10556.784164  21774.123628  34593.141807     -2.779851
PC40 -25300.250834  26735.956565 -20798.805020    -22.043866
PC41  -9312.133875 -12691.345432 -22984.697063   -926.744038
PC42  22346.164560 -16687.154463    174.685952   -709.700674
PC43   -297.963999 -16948.652403  22149.207269     19.525135
PC44  26571.973399   5899.072937   6219.255515     94.316846
PC45  10410.371941  23558.727224 -10715.521639    -92.562607
PC46 -12371.617738  15365.746091  19722.264386    -51.194168
PE02  10531.524735  14999.958193 -23246.189407     35.821515
PE03  21751.434194  10239.028419  17263.980877   -675.054060
PE04 -29510.900445   2262.884616   -537.731735   -113.566544
PE05    989.989705  17007.822493  24215.678307    -71.179161
PE07  20254.614265 -13621.314619 -16724.236205    -42.087091
PE08  29505.568343  -2115.076296    835.507930    -76.806094
PE09 -20403.798588  13498.134075  16684.090719     -0.987533
PE10 -15836.797792   4923.926085 -24528.325753   -530.812741
PE11  -8455.292769  15038.117721 -24070.232315   1799.875405
PE12 -20177.872021  -4974.077622 -21075.223951   -522.394657
PE13   9011.608430 -14296.568847  24298.522088    -19.011015
PE14  23197.666176  -3508.220788   4564.457573    213.899862
PE15  20253.343757   5362.387806  20916.188606    -18.841985
PE18 -27460.229403  10512.124467 -13512.531239     17.987039
PE19 -19484.185370 -11585.314523 -19021.241925  -2626.601438
PE21   3452.349001 -26828.195545  12018.973317   -526.808657
PE24 -16652.939015  23301.067305   7418.530316    -76.916984
PE25  -3708.309934  26917.108243 -11735.771862   -604.379856
PE26  -7879.490456 -25551.363157  12689.919996     92.578691
PE27  16247.700946 -23809.200666  -6753.569897    -39.668070
PE30  19325.015760  -6100.064970 -21592.610854   -140.824962
PE31 -19339.872542   6790.560081  21357.147781   -522.867838
PE33 -19444.555816 -21687.893689  -5220.154513   -445.025627
PE34  19537.045238  21580.501389   5353.368630    -43.325523
PE36   7371.846105  25347.631871 -13408.828489    -50.194755
PG01  18410.470717   8932.404608  16796.327841    188.405175
PG02   -889.388876  19259.969942 -17917.311031   -600.205638
PG03  16851.996022  -3032.960424  20141.150323   -314.347562
PG04  26607.602695    325.042776    837.084149     31.416281
PG05  -9498.770125 -13729.555742 -20802.151633   -125.669637
PG06  -2136.786013 -21882.017058  14889.977028    588.043790
PG07  13766.281878  -6664.771580 -21281.579491    187.760898
PG08  22543.543283   7207.803290 -12512.557330   -120.571457
PG09  23677.993450  -8019.164834  -9104.361996   -167.492912
PG10 -10733.827757  24022.242363   2225.461380    -35.281903
PG11 -12266.822973 -23540.164584   1396.895190   -182.715738
PG12 -16278.782430   -784.434588  20673.593026   -371.155185
PG13 -16093.241764 -13126.810596 -16849.318763    514.293729
PG14  13386.839542 -22835.738096   -717.665321     43.723493
PG15 -23344.756165  -5002.353405 -12368.652643     35.948313
PG16   5662.599395  16791.629353 -19943.417182   -504.318776
PG17  12180.934591 -13327.215168  19944.623825    713.237591
PG18 -11074.780589  10306.148137 -21819.657878   -249.596828
PG19   2081.592816 -14715.251514  21775.409408    311.571324
PG20  -4384.426146 -21537.983926 -15015.543949    435.756269
PG21  20344.390927  14862.495281  10215.171667    154.008386
PG22   1733.808035  15420.925425  22015.819263    474.541167
PG23 -16275.839951  18497.097052  -9714.886289     21.099026
PG24 -20463.465926 -11391.305736  12556.651237   -174.073112
PG25 -17984.820628  11386.143405  15402.579184    439.966978
PG26  -2131.703803  24191.335478 -10460.621131    241.246477
PG27  12842.722966  12966.526944 -19689.709960     45.992822
PG28   1102.658471  21203.871346  15935.961581     73.353858
PG29 -25627.764207   3452.486022  -6317.808786   -597.903184
PG30   5421.463908 -17619.211522 -18917.399116   -519.361081
PG31   7833.510024  23793.171598   7972.009889   -215.264945
PG32  -8501.740391  14823.852909  20462.658456   -466.679393
PJ02 -31946.306515  26676.530212  11523.360963     -1.733835
PJ03 -24201.822659  17700.490740 -25048.619734      3.354563
PJ04 -27022.100589  32574.335633   4786.416295     94.352858
PR01  -7670.389783  14579.834133  19488.104215     56.730919
PR02  10639.748026   6486.565005  22316.483269    -22.890992
PR03  22195.562363  -4779.859117  11732.446007     77.102295
PR04  21350.582551 -12992.843628  -5088.171391    185.636883
PR05   8982.019131 -14231.524541 -19159.419218    111.910212
PR07 -22404.124042   5299.969116 -10888.203508     55.065337
PR08 -21108.149932  13250.814503   5434.028639    -70.612608
PR09  -7128.655624 -18672.849963  15816.097301    117.972009
PR11  -9236.082354  15765.338242  17816.728937    -47.618954
PR12  -1848.884050  25422.668578    773.797745     26.930194
PR13   5993.343199  20157.772974 -14451.279826    -34.602194
PR14  11053.587502   1505.632556 -22929.249213     24.630875
PR15   9144.674222 -16718.151590 -16936.573222     89.474441
PR16   1781.169326 -25405.331989  -1070.284235     14.156783
PR17  21347.356107   8278.710097  11210.703266    626.450514
PR18  12493.684282  -3390.710353  21999.042668     79.518236
PR19  -1147.805248 -12932.606368  21950.261280   -231.161038
PR20 -17661.363505 -16931.985438   7134.099999    -92.181398
PR21 -20897.022590  -7440.943750 -12618.281794     -4.460613
PR22 -12063.386397   3999.321279 -22091.331346     81.677531
PR24  18500.144510  16330.978308  -6429.656833    166.890630
PR25 -21087.202430  -9280.100804 -10966.003300 999999.999999
EOF
